[{"OBJECT_NAME":"CUBESX-HSE 3 (RS42S)","OBJECT_ID":"2023-091N","EPOCH":"2026-03-09T22:57:25.321248","MEAN_MOTION":15.286147,"ECCENTRICITY":0.00127191,"INCLINATION":97.5203,"RA_OF_ASC_NODE":133.4295,"ARG_OF_PERICENTER":86.5376,"MEAN_ANOMALY":273.7318,"EPHEMERIS_TYPE":0,"CLASSIFICATION_TYPE":"U","NORAD_CAT_ID":57178,"ELEMENT_SET_NO":999,"REV_AT_EPOCH":14925,"BSTAR":0.00059055694,"MEAN_MOTION_DOT":0.00016417,"MEAN_MOTION_DDOT":0},{"OBJECT_NAME":"STARLINK-35917","OBJECT_ID":"2025-263U","EPOCH":"2026-03-09T22:15:31.756896","MEAN_MOTION":15.27591879,"ECCENTRICITY":0.00013982,"INCLINATION":42.9987,"RA_OF_ASC_NODE":349.4932,"ARG_OF_PERICENTER":264.7433,"MEAN_ANOMALY":95.3259,"EPHEMERIS_TYPE":0,"CLASSIFICATION_TYPE":"U","NORAD_CAT_ID":66503,"ELEMENT_SET_NO":999,"REV_AT_EPOCH":1893,"BSTAR":0.0013425708,"MEAN_MOTION_DOT":0.00036881,"MEAN_MOTION_DDOT":0}]
